GLOBALSTAR M035         
1 25851U 99037A   25338.16012484 -.00000013  00000+0  19206-2 0  9990
2 25851  51.9981  35.9067 0013452 255.3266 130.7539 11.04540342115043
GLOBALSTAR M032         
1 25852U 99037B   25337.95718336  .00000088  00000+0  49561-2 0  9994
2 25852  51.9930 209.8490 0013575  90.6601 269.5754 11.19074783153790
GLOBALSTAR M051         
1 25853U 99037C   25338.09167910 -.00000106  00000+0 -84991-3 0  9997
2 25853  51.9820 351.0166 0000271 148.9260 211.1566 11.42204995151806
GLOBALSTAR M030         
1 25854U 99037D   25337.77772914 -.00000063  00000+0  24629-3 0  9991
2 25854  51.9844 147.0939 0003243  14.3661 345.7247 11.55109777169644
GLOBALSTAR M048         
1 25872U 99041A   25337.66897697 -.00000067  00000+0  96662-4 0  9991
2 25872  51.9390 293.6236 0013310 115.7205  55.6486 11.33860509144204
GLOBALSTAR M026         
1 25873U 99041B   25337.66550572 -.00000011  00000+0  19565-2 0  9994
2 25873  51.9972 153.1808 0001947 152.2713 288.3204 11.06848326167255
GLOBALSTAR M043         
1 25874U 99041C   25337.50149242 -.00000079  00000+0 -30953-3 0  9996
2 25874  51.9427  48.4086 0013480 237.0053 136.0810 11.25696318141942
GLOBALSTAR M028         
1 25875U 99041D   25337.51189774 -.00000099  00000+0  10430-4 0  9992
2 25875  51.9642  48.1632 0063656  79.6083 281.1944 12.50591937211363
